{"type":"Feature","properties":{"MUN":"MANASQUAN BORO","COUNTY":"MONMOUTH","MUN_LABEL":"Manasquan Borough","MUN_TYPE":"Borough","NAME":"Manasquan Borough","GNIS_NAME":"Borough of Manasquan"},"geometry":{"type":"Polygon","coordinates":[[[-74.0463258,40.1312239],[-74.0449079,40.1308513],[-74.0437979,40.1305597],[-74.0436473,40.1305178],[-74.0433455,40.130434],[-74.0432453,40.1303925],[-74.0431474,40.1303521],[-74.0430143,40.1303017],[-74.0423901,40.1299087],[-74.0445808,40.1254141],[-74.0445558,40.125399],[-74.0444881,40.1253597],[-74.0444839,40.1253572],[-74.0444278,40.1253341],[-74.0444074,40.1253258],[-74.0443253,40.1252766],[-74.0443085,40.1252665],[-74.0442004,40.1252349],[-74.0440562,40.1252101],[-74.0439617,40.1251613],[-74.0438358,40.125102],[-74.0437051,40.1250668],[-74.0436458,40.1250317],[-74.0436287,40.1250215],[-74.0436229,40.1250165],[-74.0435883,40.1249868],[-74.043512,40.1249345],[-74.0434356,40.1248858],[-74.0433547,40.124837],[-74.0432781,40.1248159],[-74.0431835,40.1247948],[-74.0430665,40.1247389],[-74.0429991,40.1246902],[-74.0429319,40.1246276],[-74.0428735,40.1245824],[-74.0427834,40.1245544],[-74.0427025,40.124516],[-74.0426217,40.1244533],[-74.0425406,40.1244253],[-74.0424279,40.1244145],[-74.04226,40.1243361],[-74.0421026,40.1242489],[-74.0420128,40.1241863],[-74.0418961,40.1240854],[-74.0416807,40.1239011],[-74.0413969,40.1236598],[-74.0412309,40.1235207],[-74.0409168,40.1232494],[-74.0405714,40.1229434],[-74.040243,40.1226324],[-74.0399064,40.1223507],[-74.0397171,40.1221973],[-74.0395601,40.1220686],[-74.0394117,40.1219814],[-74.0391735,40.121842],[-74.0389354,40.1216922],[-74.0387242,40.1215599],[-74.0384893,40.1214232],[-74.0384764,40.1214157],[-74.0384514,40.1213998],[-74.0382518,40.1212729],[-74.0382001,40.1212479],[-74.0379549,40.1211298],[-74.0377841,40.1210425],[-74.0374736,40.1209063],[-74.0373972,40.1208645],[-74.0373951,40.1208528],[-74.0373885,40.120816],[-74.0373708,40.120764],[-74.0373686,40.1207633],[-74.0372762,40.1207359],[-74.0371502,40.1206939],[-74.0370307,40.120688],[-74.0366871,40.1205103],[-74.0363832,40.1203531],[-74.035812,40.1200808],[-74.0353735,40.1198615],[-74.034781,40.1195074],[-74.0337982,40.1188888],[-74.0317847,40.1176214],[-74.0310936,40.1171864],[-74.0310939,40.1171684],[-74.0310946,40.1171236],[-74.0310693,40.1170056],[-74.0310077,40.1169276],[-74.0309949,40.1168874],[-74.0309952,40.1168422],[-74.0310348,40.1167973],[-74.0311038,40.1167448],[-74.0311533,40.1166673],[-74.0311755,40.1165269],[-74.0312398,40.1162085],[-74.0313936,40.1156974],[-74.0314357,40.1155169],[-74.0314394,40.1154567],[-74.0314137,40.1153839],[-74.0313556,40.1152758],[-74.0313363,40.1152305],[-74.0313367,40.1151753],[-74.0313502,40.1151127],[-74.0314594,40.1149174],[-74.031556,40.1146544],[-74.0316581,40.1142861],[-74.0317686,40.1136593],[-74.0317873,40.1133257],[-74.0317707,40.113125],[-74.0317391,40.1129668],[-74.0316874,40.1128813],[-74.031616,40.1128133],[-74.0315739,40.1127579],[-74.031571,40.1126952],[-74.0315812,40.1126425],[-74.0316143,40.11258],[-74.0318524,40.1119299],[-74.0322547,40.1106721],[-74.0323033,40.1105017],[-74.0323036,40.110444],[-74.0322649,40.1103837],[-74.0321705,40.1103231],[-74.0321317,40.1102703],[-74.032132,40.1102176],[-74.0321754,40.1100848],[-74.0323645,40.1096741],[-74.032516,40.1092508],[-74.0325864,40.1089952],[-74.0326611,40.1088148],[-74.0327014,40.108667],[-74.0328944,40.1079101],[-74.0331051,40.1069527],[-74.0331919,40.1064437],[-74.033254,40.1059723],[-74.0333383,40.1053455],[-74.0334086,40.1048616],[-74.0333995,40.1047612],[-74.0333676,40.1046432],[-74.0333747,40.1045579],[-74.0334483,40.1040715],[-74.0334927,40.1035424],[-74.0335009,40.1030632],[-74.0334884,40.1029854],[-74.0334564,40.1029428],[-74.0334301,40.1029124],[-74.0331294,40.1026694],[-74.0321648,40.102153],[-74.0319954,40.1021005],[-74.0316309,40.1020025],[-74.0314606,40.1019362],[-74.0312815,40.1018354],[-74.0312327,40.1017954],[-74.0312145,40.101773],[-74.0311957,40.1017341],[-74.0311649,40.1016525],[-74.0311614,40.1016339],[-74.0311639,40.1016201],[-74.031211,40.1014728],[-74.0313755,40.1009589],[-74.03146,40.1009961],[-74.0314793,40.1010046],[-74.0319284,40.101242],[-74.0324924,40.1015401],[-74.0340119,40.1023596],[-74.0349547,40.1028622],[-74.0366222,40.1037364],[-74.0374668,40.1041519],[-74.0381992,40.1044368],[-74.0384468,40.1045054],[-74.0390288,40.1046668],[-74.0392705,40.1047338],[-74.0404543,40.1050964],[-74.0417221,40.1055785],[-74.0422729,40.1057754],[-74.0426731,40.1059185],[-74.0427405,40.1059399],[-74.0428807,40.1061579],[-74.0429685,40.1062943],[-74.0430263,40.1064872],[-74.0430807,40.106629],[-74.043157,40.1068279],[-74.0432077,40.1069529],[-74.043346,40.1072934],[-74.0435081,40.107717],[-74.0435229,40.1077605],[-74.0436279,40.1080687],[-74.0436757,40.1081997],[-74.0437328,40.108356],[-74.0437924,40.108567],[-74.0438361,40.1086349],[-74.043868,40.1086844],[-74.043989,40.1088371],[-74.0441713,40.1089725],[-74.0443037,40.1091094],[-74.0443451,40.1091521],[-74.0443672,40.1091965],[-74.0444368,40.1093359],[-74.0444885,40.1095604],[-74.0445388,40.1099887],[-74.0445633,40.1102946],[-74.0446054,40.1104178],[-74.0446545,40.11056],[-74.0446817,40.1106391],[-74.0447426,40.1107578],[-74.0448191,40.1108706],[-74.0449264,40.1109835],[-74.045057,40.1110729],[-74.0451646,40.1111384],[-74.0453032,40.1111923],[-74.045411,40.1112342],[-74.0455344,40.1112583],[-74.0456964,40.1112767],[-74.0458505,40.1113188],[-74.0460198,40.1113964],[-74.0461429,40.1114561],[-74.0463349,40.111605],[-74.0464653,40.1117298],[-74.0465493,40.1118605],[-74.0465843,40.1120477],[-74.0465828,40.112268],[-74.0465432,40.112582],[-74.0465413,40.1128563],[-74.0466356,40.1133754],[-74.0468239,40.113834],[-74.0472331,40.1142905],[-74.0478603,40.1149212],[-74.0484277,40.1153771],[-74.0490613,40.1156654],[-74.0495011,40.115782],[-74.0496697,40.1158036],[-74.0497709,40.1158143],[-74.0498889,40.1158356],[-74.0499896,40.1158586],[-74.05011,40.1158912],[-74.050196,40.1159067],[-74.0502547,40.1159095],[-74.0502796,40.1159108],[-74.050353,40.115907],[-74.0504399,40.1159085],[-74.0504973,40.1159121],[-74.0505444,40.1159213],[-74.0505752,40.1159338],[-74.050606,40.1159509],[-74.050631,40.115968],[-74.050653,40.1159817],[-74.0506765,40.1159874],[-74.0506986,40.1159875],[-74.0507178,40.1159819],[-74.0507296,40.1159695],[-74.0507445,40.1159537],[-74.0507578,40.1159391],[-74.0507652,40.1159369],[-74.0507873,40.1159358],[-74.0508049,40.1159415],[-74.0508241,40.1159495],[-74.0508431,40.1159575],[-74.0508652,40.115961],[-74.0508947,40.11596],[-74.0509213,40.1159522],[-74.0509375,40.1159443],[-74.0509538,40.1159252],[-74.0509657,40.115906],[-74.050988,40.1158868],[-74.0510101,40.1158745],[-74.051047,40.1158622],[-74.0510839,40.1158521],[-74.0511267,40.1158433],[-74.0511916,40.1158345],[-74.0512645,40.1158246],[-74.0513221,40.1158135],[-74.0513648,40.115808],[-74.051384,40.1158069],[-74.0514061,40.1158081],[-74.0514369,40.1158196],[-74.051481,40.1158412],[-74.051525,40.1158652],[-74.0515617,40.1158856],[-74.0516146,40.1159073],[-74.0516646,40.11592],[-74.0516896,40.115928],[-74.0517101,40.1159405],[-74.0517262,40.115953],[-74.0517482,40.1159689],[-74.0517703,40.1159792],[-74.0518114,40.1159907],[-74.0518511,40.116001],[-74.0518967,40.1160159],[-74.0519194,40.1160261],[-74.05194,40.1160375],[-74.0519605,40.1160489],[-74.0519767,40.1160592],[-74.0519899,40.1160637],[-74.0520076,40.1160683],[-74.0520326,40.1160684],[-74.0520533,40.1160629],[-74.0520842,40.1160551],[-74.0521196,40.1160518],[-74.0521476,40.1160542],[-74.0521711,40.1160599],[-74.0521814,40.1160656],[-74.0521901,40.1160815],[-74.0522017,40.1161041],[-74.0522148,40.1161313],[-74.0522265,40.1161472],[-74.0522412,40.1161586],[-74.0522661,40.1161689],[-74.0522926,40.1161735],[-74.0523162,40.1161758],[-74.0523397,40.1161782],[-74.0523677,40.1161839],[-74.0523912,40.1161953],[-74.0524293,40.116217],[-74.0524564,40.1162317],[-74.0524832,40.1162458],[-74.0525117,40.1162579],[-74.0525489,40.1162686],[-74.0525782,40.1162801],[-74.0525964,40.1162908],[-74.0526144,40.1163062],[-74.0526256,40.1163215],[-74.0526359,40.1163408],[-74.0526453,40.1163521],[-74.0526591,40.1163628],[-74.052685,40.1163769],[-74.052723,40.1163963],[-74.0527618,40.1164151],[-74.0528011,40.1164312],[-74.0528391,40.1164473],[-74.0528875,40.1164675],[-74.0529177,40.1164829],[-74.0529635,40.1165023],[-74.0529768,40.1165124],[-74.0529906,40.116523],[-74.0530035,40.1165337],[-74.0530156,40.1165431],[-74.0530328,40.1165525],[-74.0530467,40.1165572],[-74.0530666,40.1165612],[-74.0530873,40.1165646],[-74.0531098,40.1165701],[-74.0531271,40.1165781],[-74.0531513,40.1165941],[-74.053165,40.1166035],[-74.0531788,40.1166135],[-74.0531926,40.1166229],[-74.0532082,40.1166283],[-74.0532307,40.1166317],[-74.0532541,40.1166331],[-74.0532683,40.1166378],[-74.0534521,40.1167456],[-74.0534849,40.1167637],[-74.0535065,40.1167731],[-74.0535445,40.1167885],[-74.0535743,40.1167973],[-74.0536097,40.1168094],[-74.0536357,40.1168181],[-74.0536702,40.1168329],[-74.0537108,40.116849],[-74.0537557,40.1168664],[-74.0538015,40.1168839],[-74.0538339,40.1168967],[-74.0538512,40.116902],[-74.0538754,40.1169075],[-74.0538936,40.1169102],[-74.0539135,40.1169136],[-74.053942,40.116919],[-74.0539697,40.1169244],[-74.0540017,40.1169312],[-74.0540285,40.1169386],[-74.0540648,40.1169494],[-74.0541089,40.1169649],[-74.0541499,40.1169783],[-74.0541828,40.1169924],[-74.0542139,40.1170072],[-74.0542518,40.1170313],[-74.0542837,40.1170513],[-74.0543173,40.1170734],[-74.0543566,40.1170953],[-74.0543994,40.1171186],[-74.0544295,40.1171348],[-74.0544396,40.1171444],[-74.0545596,40.1172182],[-74.0547099,40.1173187],[-74.0548001,40.1173814],[-74.0549135,40.1174532],[-74.0549667,40.1174819],[-74.0549968,40.1175034],[-74.0550546,40.1175411],[-74.0551055,40.1175752],[-74.0551471,40.1176092],[-74.0552165,40.1176487],[-74.0552674,40.1176739],[-74.0553369,40.1177081],[-74.0554041,40.1177297],[-74.0554505,40.1177513],[-74.0554805,40.1177728],[-74.0555175,40.1178086],[-74.0555659,40.1178677],[-74.0556189,40.1179303],[-74.0556812,40.1179912],[-74.0557124,40.1180216],[-74.0557608,40.1180717],[-74.0558046,40.1181201],[-74.0558323,40.118163],[-74.0558645,40.1182077],[-74.0558944,40.1182524],[-74.0559121,40.118274],[-74.0559316,40.1182929],[-74.0559597,40.1183184],[-74.0559951,40.1183393],[-74.0560391,40.118363],[-74.0561149,40.1183943],[-74.0561454,40.1184114],[-74.056209,40.1184436],[-74.0562835,40.1184835],[-74.0563275,40.1185156],[-74.056369,40.1185393],[-74.056413,40.1185611],[-74.0564558,40.1185755],[-74.0564858,40.118585],[-74.0565115,40.1185926],[-74.0565262,40.1186002],[-74.0565384,40.1186106],[-74.0565517,40.1186361],[-74.0565687,40.1186644],[-74.0565894,40.1186823],[-74.0566126,40.1186994],[-74.0566431,40.1187202],[-74.0566638,40.1187363],[-74.0566882,40.1187552],[-74.0567445,40.1187846],[-74.0567909,40.1188093],[-74.0568385,40.118833],[-74.0568838,40.1188595],[-74.0569271,40.1188888],[-74.056965,40.1189144],[-74.0569955,40.1189334],[-74.0570419,40.1189589],[-74.0570835,40.1189836],[-74.0571372,40.1190177],[-74.0573235,40.1191238],[-74.0573845,40.1191608],[-74.0574438,40.1191855],[-74.0575148,40.1192121],[-74.0575956,40.119235],[-74.0577107,40.1192599],[-74.0578503,40.119283],[-74.0579336,40.1193078],[-74.0579947,40.1193344],[-74.0580204,40.119342],[-74.0580594,40.1193704],[-74.0581277,40.1194347],[-74.058208,40.1195273],[-74.0582982,40.1196161],[-74.0583712,40.1196955],[-74.0584102,40.1197408],[-74.0584516,40.1197805],[-74.0585102,40.1198316],[-74.0585858,40.1198921],[-74.0586129,40.1199205],[-74.0586957,40.1199634],[-74.0587786,40.1199998],[-74.0589057,40.1200471],[-74.0590189,40.1200943],[-74.0593117,40.1202124],[-74.0595135,40.1202833],[-74.0598204,40.1203695],[-74.0600914,40.1204344],[-74.0602816,40.1204766],[-74.0603366,40.1204918],[-74.060393,40.1205015],[-74.060464,40.1205149],[-74.0605424,40.1205321],[-74.0606085,40.1205437],[-74.0606514,40.1205495],[-74.0607176,40.1205535],[-74.0607666,40.1205631],[-74.0608352,40.1205766],[-74.0609161,40.1205863],[-74.0610043,40.120596],[-74.0610753,40.1206057],[-74.0611562,40.1206098],[-74.0612347,40.1206139],[-74.061296,40.1206216],[-74.0613499,40.1206312],[-74.0614295,40.1206428],[-74.061633,40.120653],[-74.0617409,40.1206572],[-74.0618218,40.1206631],[-74.0619271,40.1206767],[-74.0619892,40.120686],[-74.0614085,40.1215043],[-74.061408,40.1215049],[-74.0601037,40.1232733],[-74.0583808,40.1256091],[-74.0557107,40.1287936],[-74.0556196,40.1288855],[-74.0551816,40.1293273],[-74.0549613,40.1295495],[-74.0548524,40.1296593],[-74.0547413,40.1297714],[-74.0545212,40.1299934],[-74.0545212,40.1299934],[-74.0544129,40.1301027],[-74.0539037,40.1306163],[-74.0538723,40.1306026],[-74.0535813,40.1305047],[-74.0534804,40.1305735],[-74.0533595,40.1305653],[-74.0525299,40.131922],[-74.0520705,40.1326732],[-74.0520679,40.1326776],[-74.0520569,40.1326747],[-74.0516402,40.1325699],[-74.0509474,40.1323957],[-74.0501569,40.1321969],[-74.0498624,40.1321229],[-74.0488892,40.131876],[-74.048734,40.131837],[-74.0475998,40.1315516],[-74.0474259,40.1315069],[-74.0465274,40.1312758],[-74.0463258,40.1312239]]]}}
